163P/NEAT,e,12.7170,102.0664,349.5573,3.764473,0.1349422,0.45269876,181.4144,04/11.0/2023,2000,g 14.5,4.0
# From MPEC 2021-F20
164P/Christensen,e,16.2711,88.2654,325.8807,3.654116,0.1411012,0.54101816,250.3051,04/11.0/2023,2000,g 11.0,4.0
# From MPC 75721
165P/LINEAR,e,15.8953,0.8550,125.7789,17.83527,0.0130853,0.61680362,109.4004,04/11.0/2023,2000,g 11.5,2.0
# From MPC 75722
166P/NEAT,e,15.3859,64.3424,321.6891,13.81703,0.0191903,0.38460509,146.1343,04/11.0/2023,2000,g  5.5,4.0
# From MPC 75722
167P/CINEOS,e,19.1008,295.7460,344.7938,16.25320,0.0150417,0.26957753,120.5512,04/11.0/2023,2000,g  9.5,2.0
# From MPC102101
168P/Hergenrother,e,21.6212,355.4489,15.0375,3.582380,0.1453606,0.62119708,195.3229,04/11.0/2023,2000,g 15.5,4.0
# From MPEC 2023-G31
169P/NEAT,e,11.2981,176.1010,218.0570,2.602721,0.2347268,0.76834433,64.6225,04/11.0/2023,2000,g 16.0,2.0
# From MPEC 2023-A50
170P/Christensen,e,10.1175,142.9069,225.3804,4.210084,0.1140953,0.30551371,359.0269,04/11.0/2023,2000,g 12.0,4.0
# From MPC102102
171P/Spahr,e,21.9478,101.6883,347.0475,3.553612,0.1471292,0.50223224,227.8310,04/11.0/2023,2000,g 13.5,4.0
# From MPEC 2023-FK0
172P/Yeung,e,11.2253,30.8752,209.2155,4.217685,0.1137871,0.20451839,253.2375,04/11.0/2023,2000,g 13.0,4.0
# From MPEC 2022-X67
173P/Mueller,e,16.4892,100.3779,29.1522,5.710157,0.0722324,0.26158012,34.7140,04/11.0/2023,2000,g  7.5,4.0
# From MPC 92985
174P/Echeclus,e,4.3439,173.1892,163.4273,10.74581,0.0279798,0.45682218,81.3242,04/11.0/2023,2000,g  9.4,2.0
# From MPC114608
175P/Hergenrother,e,4.9162,111.2240,74.6347,3.646429,0.1415476,0.38855707,185.3341,04/11.0/2023,2000,g 14.0,4.0
# From MPC 89015
176P/LINEAR,e,0.2313,345.8208,34.3640,3.196500,0.1724614,0.19273711,24.3768,04/11.0/2023,2000,g 15.1,2.0
# From MPEC 2020-L06
177P/Barnard,e,31.0945,271.8758,60.6502,24.49604,0.0081294,0.95510270,49.2709,04/11.0/2023,2000,g 15.0,4.0
# From MPEC 2021-F20
178P/Hug-Bell,e,11.0876,102.8280,297.8608,3.632715,0.1423499,0.48249479,142.0375,04/11.0/2023,2000,g 14.6,4.0
# From MPEC 2023-F81
179P/Jedicke,e,19.8973,115.5147,297.0029,5.932785,0.0682050,0.30585185,21.4897,04/11.0/2023,2000,g  2.5,8.0
# From MPEC 2023-G31
180P/NEAT,e,16.8601,84.5673,94.6693,3.867437,0.1295893,0.35336470,348.0513,04/11.0/2023,2000,g 11.0,4.0
# From MPC 89012
181P/Shoemaker-Levy,e,17.4862,35.3952,336.2764,3.875753,0.1291725,0.70055867,59.0628,04/11.0/2023,2000,g 11.5,4.0
# From MPEC 2014-J10
182P/LONEOS,e,16.2291,72.4574,54.2192,2.950199,0.1945034,0.66327625,64.9150,04/11.0/2023,2000,g 18.0,4.0
# From MPEC 2023-A50
183P/Korlevic-Juric,e,18.9599,3.9877,167.2231,4.657865,0.0980446,0.10861447,198.0258,04/11.0/2023,2000,g 12.5,2.0
# From MPEC 2020-W26
184P/Lovas,e,4.5738,173.2408,186.5585,3.797669,0.1331767,0.55088249,119.4131,04/11.0/2023,2000,g 13.5,4.0
# From MPC109593
185P/Petriew,e,14.0146,214.1145,181.8918,3.097905,0.1807598,0.69970484,343.2061,04/11.0/2023,2000,g 15.0,4.0
# From MPEC 2022-X67
186P/Garradd,e,28.6543,326.3172,269.5276,4.854534,0.0921473,0.12409187,143.7445,04/11.0/2023,2000,g  7.5,4.0
# From MPEC 2020-SI8
187P/LINEAR,e,13.6379,109.8817,131.2977,4.564353,0.1010730,0.15257277,181.5933,04/11.0/2023,2000,g  9.0,4.0
# From MPEC 2022-K19
188P/LINEAR-Mueller,e,10.5253,358.9606,26.6531,4.370224,0.1078819,0.41684085,241.5739,04/11.0/2023,2000,g 11.5,4.0
# From MPEC 2022-QD9
189P/NEAT,e,20.0707,281.6962,16.3323,2.945610,0.1949581,0.58880634,43.8961,04/11.0/2023,2000,g 19.0,4.0
# From MPEC 2020-K19
190P/Mueller,e,2.1741,335.5280,50.4233,4.229895,0.1132947,0.52223230,289.4152,04/11.0/2023,2000,g 13.0,4.0
# From MPEC 2022-X67
191P/McNaught,e,8.8396,98.2160,284.1508,3.637986,0.1420406,0.38596293,106.7473,04/11.0/2023,2000,g 13.0,4.0
# From MPC 75724
192P/Shoemaker-Levy,e,24.5876,51.6110,313.0628,6.465960,0.0599452,0.77342857,335.4615,04/11.0/2023,2000,g 15.0,4.0
# From MPEC 2022-Y15
193P/LINEAR-NEAT,e,10.6876,335.1788,8.1094,3.576948,0.1456918,0.39358813,86.5192,04/11.0/2023,2000,g 14.0,4.0
# From MPC 98566
194P/LINEAR,e,11.8155,349.5713,128.4828,4.126997,0.1175582,0.56404844,324.8469,04/11.0/2023,2000,g 16.0,4.0
# From MPEC 2023-D72
195P/Hill,e,36.3522,243.1111,249.3372,6.507084,0.0593778,0.31480944,310.2655,04/11.0/2023,2000,g  8.5,4.0
# From MPEC 2022-YN2
196P/Tichy,e,19.3017,24.1124,12.0404,3.803473,0.1328720,0.42806186,21.7508,04/11.0/2023,2000,g 13.5,4.0
# From MPC 94676
197P/LINEAR,e,25.5282,66.3601,188.7581,2.868056,0.2029190,0.62936116,25.2165,04/11.0/2023,2000,g 16.5,2.0
# From NK 1596
198P/ODAS,e,1.3385,358.2105,69.2274,3.595980,0.1445367,0.44441046,228.0672,04/11.0/2023,2000,g  9.0,4.0
# From MPEC 2023-G31
199P/Shoemaker,e,24.9365,92.3481,191.7757,5.882840,0.0690754,0.50529176,351.8088,04/11.0/2023,2000,g 10.0,4.0
# From MPEC 2022-C56
200P/Larsen,e,12.0982,234.7358,134.3420,4.947015,0.0895755,0.33252969,120.9990,04/11.0/2023,2000,g  9.0,4.0
# From MPC 93588
201P/LONEOS,e,5.7394,19.7444,41.5452,3.354732,0.1604048,0.63739717,109.7348,04/11.0/2023,2000,g 14.0,4.0
# From MPEC 2022-X67
202P/Scotti,e,2.1410,177.3333,274.6057,4.119594,0.1178752,0.25593539,312.5695,04/11.0/2023,2000,g 13.5,4.0
# From MPEC 2021-S45
203P/Korlevic,e,2.9731,290.2799,154.7887,4.669283,0.0976852,0.31582354,110.5733,04/11.0/2023,2000,g 14.5,2.0
# From MPEC 2023-G31
204P/LINEAR-NEAT,e,6.5960,108.4983,356.6589,3.582086,0.1453785,0.48789700,21.0985,04/11.0/2023,2000,g 14.0,4.0
# From MPEC 2023-A50
205P/Giacobini,e,15.3062,179.6035,154.1762,3.542045,0.1478505,0.56792560,66.8842,04/11.0/2023,2000,g 13.0,4.0
# From MPC 75725
206P/Barnard-Boattini,e,33.6407,202.3307,189.5412,3.490234,0.1511549,0.55152819,115.9782,04/11.0/2023,2000,g 19.0,4.0
# From MPC 75725
207P/NEAT,e,10.2014,198.1607,273.0222,3.880463,0.1289374,0.75840692,321.8599,04/11.0/2023,2000,g 16.0,4.0
# From MPEC 2022-K19
208P/McMillan,e,4.4125,36.3397,310.6102,4.041253,0.1213193,0.37411594,299.2581,04/11.0/2023,2000,g 12.5,4.0
# From MPEC 2023-CD7
209P/LINEAR,e,21.2727,62.7651,152.4478,2.959656,0.1935718,0.67359596,270.8346,04/11.0/2023,2000,g 17.0,2.0
# From MPC105242
210P/Christensen,e,10.2766,93.8020,345.9047,3.162883,0.1752183,0.83372586,192.3570,04/11.0/2023,2000,g 13.5,4.0
# From MPEC 2023-FK0
211P/Hill,e,18.9187,117.1290,4.2946,3.548051,0.1474753,0.34398758,27.7769,04/11.0/2023,2000,g 12.5,4.0
# From MPEC 2021-F20
212P/NEAT,e,22.1453,98.0399,14.0350,3.900542,0.1279430,0.58699963,311.3658,04/11.0/2023,2000,g 17.0,2.0
# From MPEC 2022-GA9
213P/Van Ness,e,10.3808,311.2770,5.7655,3.345752,0.1610510,0.40808078,325.4179,04/11.0/2023,2000,g 10.5,4.0
# From MPC 92986
214P/LINEAR,e,15.1828,348.2464,190.1704,3.619551,0.1431271,0.48588710,28.1689,04/11.0/2023,2000,g 13.0,4.0
# From MPEC 2023-B57
215P/NEAT,e,10.5770,56.6779,262.4141,4.331538,0.1093304,0.16602217,135.4337,04/11.0/2023,2000,g 11.0,4.0
# From MPC100284
216P/LINEAR,e,9.0635,359.8014,151.6989,3.857857,0.1300723,0.44855379,324.7762,04/11.0/2023,2000,g 13.0,4.0
# From MPEC 2021-N06
217P/LINEAR,e,12.8621,125.4185,246.9518,3.948210,0.1256330,0.68930077,262.6641,04/11.0/2023,2000,g 12.0,4.0
# From MPEC 2022-K19
218P/LINEAR,e,2.7306,176.0136,59.5369,3.087405,0.1816827,0.62351471,166.9650,04/11.0/2023,2000,g 16.0,4.0
# From MPC100284
219P/LINEAR,e,11.5396,230.9525,107.5920,3.646126,0.1415652,0.35407247,316.2950,04/11.0/2023,2000,g 11.0,4.0
# From MPEC 2021-BE3
220P/McNaught,e,8.1272,150.1060,180.6084,3.117920,0.1790221,0.50125298,152.4375,04/11.0/2023,2000,g 15.0,4.0
# From MPEC 2022-UY9
221P/LINEAR,e,11.4648,229.5885,40.1058,3.456915,0.1533455,0.49434305,73.3849,04/11.0/2023,2000,g 14.5,4.0
# From MPC 92277
222P/LINEAR,e,5.0977,6.7747,346.2821,2.898505,0.1997298,0.71476843,280.5356,04/11.0/2023,2000,g 20.0,4.0
# From MPEC 2023-A50
223P/Skiff,e,27.0213,346.7637,37.8719,4.158578,0.1162216,0.41654749,178.1617,04/11.0/2023,2000,g 12.0,4.0
# From MPEC 2023-BF4
224P/LINEAR-NEAT,e,13.3058,40.0382,16.6867,3.443686,0.1542300,0.40583467,29.7666,04/11.0/2023,2000,g 15.5,4.0
# From MPC 75727
225P/LINEAR,e,21.3668,14.2042,3.9185,3.647942,0.1414595,0.63848324,343.1571,04/11.0/2023,2000,g 18.0,4.0
# From MPC106349
226P/Pigott-LINEAR-Kowalski,e,44.0447,54.0132,341.0795,3.765899,0.1348656,0.52898758,324.8994,04/11.0/2023,2000,g 12.5,4.0
# From MPC102956
227P/Catalina-LINEAR,e,7.5088,36.8117,105.4634,3.442118,0.1543354,0.52811039,308.7624,04/11.0/2023,2000,g 16.5,2.0
# From MPEC 2022-HC2
228P/LINEAR,e,7.9132,30.9860,114.8280,4.166345,0.1158968,0.17639120,130.8521,04/11.0/2023,2000,g 14.1,4.0
# From MPC106349
229P/Gibbs,e,26.0919,157.8993,224.0856,3.925907,0.1267051,0.37796560,272.0066,04/11.0/2023,2000,g 13.0,4.0
# From MPEC 2023-FK0
230P/LINEAR,e,15.4682,106.9742,313.4683,3.452970,0.1536083,0.54561112,59.5391,04/11.0/2023,2000,g 13.0,4.0
# From MPEC 2022-K19
231P/LINEAR-NEAT,e,12.2901,132.9533,44.2005,4.048725,0.1209836,0.24235056,169.0833,04/11.0/2023,2000,g 14.5,2.0
# From MPC112394
232P/Hill,e,14.6433,56.0258,53.2259,4.474616,0.1041287,0.33493394,152.6578,04/11.0/2023,2000,g 11.5,4.0
# From MPEC 2021-N06
233P/La Sagra,e,11.2893,74.9175,26.9593,3.028255,0.1870318,0.41231175,172.2986,04/11.0/2023,2000,g 15.0,4.0
# From MPEC 2022-K19
234P/LINEAR,e,11.5356,179.5715,357.3404,3.796162,0.1332561,0.25653351,285.1892,04/11.0/2023,2000,g 12.0,4.0
# From MPC110497
235P/LINEAR,e,10.2562,202.1579,336.7554,3.793101,0.1334174,0.37957298,231.5381,04/11.0/2023,2000,g 12.0,4.0
# From MPC107688
236P/LINEAR,e,16.3515,245.5716,119.3510,3.727727,0.1369424,0.50940471,268.9844,04/11.0/2023,2000,g 14.0,4.0
# From MPEC 2023-G31
237P/LINEAR,e,14.0168,245.3586,25.2615,3.510778,0.1498301,0.43401535,354.9539,04/11.0/2023,2000,g 14.5,2.0
# From MPEC 2022-YN2
238P/Read,e,1.2640,51.6258,324.1925,3.165219,0.1750243,0.25140924,54.1954,04/11.0/2023,2000,g 14.5,4.0
# From MPEC 2021-F20
239P/LINEAR,e,11.3046,255.9332,220.3594,4.467149,0.1043899,0.63050353,162.0848,04/11.0/2023,2000,g 17.5,2.0
# From MPEC 2023-CD7
240P/NEAT,e,23.5318,74.9099,351.9610,3.863768,0.1297739,0.44995853,232.2999,04/11.0/2023,2000,g 11.0,4.0
# From MPEC 2022-J42
